NORAD_CAT_ID,OBJECT_NAME,OBJECT_TYPE,EPOCH,MEAN_MOTION,ECCENTRICITY,INCLINATION,RA_OF_ASC_NODE,ARG_OF_PERICENTER,MEAN_ANOMALY,BSTAR,MEAN_MOTION_DOT,MEAN_MOTION_DDOT,TLE_LINE0,TLE_LINE1,TLE_LINE2,SEMIMAJOR_AXIS,PERIOD,APOGEE,PERIGEE,DECAYED
53630.0,STARLINK-4598,PAYLOAD,2024-06-12 05:52:26,15.08837923,0.0001428,53.2156,196.8175,87.4767,272.6389,5.1672e-05,5.34e-06,0.0,0 STARLINK-4598,1 53630U 22104AU  24164.24474971  .00000534  00000-0  51672-4 0  9998,2 53630  53.2156 196.8175 0001428  87.4767 272.6389 15.08837923100130,6917.887,95.438,540.74,538.764,0.0
53630.0,STARLINK-4598,PAYLOAD,2024-06-12 09:03:12,15.08835791,0.0001425,53.2156,196.2224,88.122,271.9935,1.197e-05,-9.7e-07,0.0,0 STARLINK-4598,1 53630U 22104AU  24164.37723062 -.00000097  00000-0  11970-4 0  9992,2 53630  53.2156 196.2224 0001425  88.1220 271.9935 15.08835791100150,6917.893,95.438,540.744,538.772,0.0
53630.0,STARLINK-4598,PAYLOAD,2024-06-13 02:32:27,15.08836473,0.0001259,53.2156,192.9505,86.1549,273.9587,6.269e-05,7.1e-06,0.0,0 STARLINK-4598,1 53630U 22104AU  24165.10587222  .00000710  00000-0  62690-4 0  9996,2 53630  53.2156 192.9505 0001259  86.1549 273.9587 15.08836473 99400,6917.891,95.438,540.627,538.885,0.0
53630.0,STARLINK-4598,PAYLOAD,2024-06-13 08:53:59,15.08840535,0.0001279,53.2158,191.762,86.7658,273.348,8.718e-05,1.1e-05,0.0,0 STARLINK-4598,1 53630U 22104AU  24165.37082929  .00001100  00000-0  87180-4 0  9994,2 53630  53.2158 191.7620 0001279  86.7658 273.3480 15.08840535100308,6917.879,95.438,540.629,538.859,0.0
53630.0,STARLINK-4598,PAYLOAD,2024-06-14 11:55:33,15.08835349,0.0001287,53.2158,186.708,90.8091,269.3048,9.9526e-05,1.296e-05,0.0,0 STARLINK-4598,1 53630U 22104AU  24166.49691510  .00001296  00000-0  99526-4 0  9993,2 53630  53.2158 186.7080 0001287  90.8091 269.3048 15.08835349100478,6917.895,95.438,540.65,538.869,0.0
53630.0,STARLINK-4598,PAYLOAD,2024-06-14 18:17:05,15.08837744,0.0001296,53.2159,185.5186,90.3241,269.7899,9.9663e-05,1.299e-05,0.0,0 STARLINK-4598,1 53630U 22104AU  24166.76187421  .00001299  00000-0  99663-4 0  9999,2 53630  53.2159 185.5186 0001296  90.3241 269.7899 15.08837744100519,6917.887,95.438,540.649,538.856,0.0
53630.0,STARLINK-4598,PAYLOAD,2024-06-15 08:35:33,15.08842301,0.0001261,53.2156,182.8419,87.9115,272.2022,8.0588e-05,9.95e-06,0.0,0 STARLINK-4598,1 53630U 22104AU  24167.35803202  .00000995  00000-0  80588-4 0  9995,2 53630  53.2156 182.8419 0001261  87.9115 272.2022 15.08842301100601,6917.873,95.437,540.611,538.866,0.0
53630.0,STARLINK-4598,PAYLOAD,2024-06-15 18:07:52,15.08845989,0.0001275,53.2159,181.0576,85.9281,274.1857,0.00011736,1.581e-05,0.0,0 STARLINK-4598,1 53630U 22104AU  24167.75546827  .00001581  00000-0  11736-3 0  9996,2 53630  53.2159 181.0576 0001275  85.9281 274.1857 15.08845989100664,6917.862,95.437,540.609,538.845,0.0
53630.0,STARLINK-4598,PAYLOAD,2024-06-16 08:26:20,15.08844326,0.0001328,53.2157,178.3815,86.3085,273.8059,0.00011056,1.472e-05,0.0,0 STARLINK-4598,1 53630U 22104AU  24168.35162891  .00001472  00000-0  11056-3 0  9992,2 53630  53.2157 178.3815 0001328  86.3085 273.8059 15.08844326100757,6917.867,95.437,540.651,538.813,0.0
53630.0,STARLINK-4598,PAYLOAD,2024-06-17 17:49:26,15.08842719,0.0001341,53.2158,172.1366,86.0404,274.0741,1.8257e-05,3e-08,0.0,0 STARLINK-4598,1 53630U 22104AU  24169.74266998  .00000003  00000-0  18257-4 0  9999,2 53630  53.2158 172.1366 0001341  86.0404 274.0741 15.08842719100966,6917.872,95.437,540.665,538.809,0.0
53630.0,STARLINK-4598,PAYLOAD,2024-06-18 06:32:31,15.08841711,0.0001337,53.2157,169.7577,88.1647,271.9498,4.4345e-05,4.18e-06,0.0,0 STARLINK-4598,1 53630U 22104AU  24170.27258923  .00000418  00000-0  44345-4 0  9995,2 53630  53.2157 169.7577 0001337  88.1647 271.9498 15.08841711100188,6917.875,95.437,540.665,538.815,0.0
53630.0,STARLINK-4598,PAYLOAD,2024-06-19 06:23:18,15.08838484,0.0001329,53.2161,165.297,91.3296,268.7848,6.4385e-05,7.37e-06,0.0,0 STARLINK-4598,1 53630U 22104AU  24171.26618983  .00000737  00000-0  64385-4 0  9991,2 53630  53.2161 165.2970 0001329  91.3296 268.7848 15.08838484101196,6917.885,95.438,540.669,538.831,0.0
53630.0,STARLINK-4598,PAYLOAD,2024-06-20 04:38:43,15.0883336,0.0001294,53.216,161.1342,90.3978,269.7163,2.3735e-06,-2.5e-06,0.0,0 STARLINK-4598,1 53630U 22104AU  24172.19355627 -.00000250  00000-0  23735-5 0  9993,2 53630  53.2160 161.1342 0001294  90.3978 269.7163 15.08833360100479,6917.901,95.438,540.661,538.871,0.0
53630.0,STARLINK-4598,PAYLOAD,2024-06-20 06:14:06,15.08832527,0.0001305,53.216,160.8365,91.0488,269.0653,-4.6403e-06,-3.62e-06,0.0,0 STARLINK-4598,1 53630U 22104AU  24172.25979712 -.00000362  00000-0 -46403-5 0  9999,2 53630  53.2160 160.8365 0001305  91.0488 269.0653 15.08832527101345,6917.903,95.438,540.671,538.865,0.0
53630.0,STARLINK-4598,PAYLOAD,2024-06-21 07:40:16,15.08838799,0.00013,53.216,156.0787,90.8524,269.2617,5.1394e-05,5.3e-06,0.0,0 STARLINK-4598,1 53630U 22104AU  24173.31963430  .00000530  00000-0  51394-4 0  9996,2 53630  53.2160 156.0787 0001300  90.8524 269.2617 15.08838799100644,6917.884,95.438,540.648,538.85,0.0
53630.0,STARLINK-4598,PAYLOAD,2024-06-22 04:20:17,15.08833356,0.0001365,53.2168,152.2145,97.3941,262.7207,6.7821e-05,7.91e-06,0.0,0 STARLINK-4598,1 53630U 22104AU  24174.18075991  .00000791  00000-0  67821-4 0  9999,2 53630  53.2168 152.2145 0001365  97.3941 262.7207 15.08833356100775,6917.901,95.438,540.71,538.821,0.0
53630.0,STARLINK-4598,PAYLOAD,2024-06-22 05:55:40,15.08833209,0.0001352,53.2167,151.917,96.8069,263.3077,6.5293e-05,7.51e-06,0.0,0 STARLINK-4598,1 53630U 22104AU  24174.24700038  .00000751  00000-0  65293-4 0  9990,2 53630  53.2167 151.9170 0001352  96.8069 263.3077 15.08833209101645,6917.901,95.438,540.701,538.831,0.0
53630.0,STARLINK-4598,PAYLOAD,2024-06-22 21:49:32,15.08838568,0.0001335,53.2165,148.9413,90.5658,269.5487,4.2126e-05,3.83e-06,0.0,0 STARLINK-4598,1 53630U 22104AU  24174.90940016  .00000383  00000-0  42126-4 0  9996,2 53630  53.2165 148.9413 0001335  90.5658 269.5487 15.08838568101742,6917.885,95.438,540.673,538.826,0.0
53630.0,STARLINK-4598,PAYLOAD,2024-06-23 07:21:50,15.08841279,0.0001339,53.2163,147.1578,89.2815,270.833,6.1831e-05,6.96e-06,0.0,0 STARLINK-4598,1 53630U 22104AU  24175.30683789  .00000696  00000-0  61831-4 0  9993,2 53630  53.2163 147.1578 0001339  89.2815 270.8330 15.08841279100943,6917.876,95.437,540.668,538.815,0.0
53630.0,STARLINK-4598,PAYLOAD,2024-06-24 07:12:37,15.08844079,0.000136,53.2164,142.6973,87.8992,272.2156,9.9896e-05,1.302e-05,0.0,0 STARLINK-4598,1 53630U 22104AU  24176.30043431  .00001302  00000-0  99896-4 0  9995,2 53630  53.2164 142.6973 0001360  87.8992 272.2156 15.08844079101952,6917.868,95.437,540.674,538.792,0.0
53630.0,STARLINK-4598,PAYLOAD,2024-06-25 03:52:38,15.08838835,0.0001384,53.2165,138.8305,90.5923,269.5227,-5.6727e-06,-3.78e-06,0.0,0 STARLINK-4598,1 53630U 22104AU  24177.16156031 -.00000378  00000-0 -56727-5 0  9992,2 53630  53.2165 138.8305 0001384  90.5923 269.5227 15.08838835101221,6917.884,95.438,540.706,538.792,0.0
53630.0,STARLINK-4598,PAYLOAD,2024-06-25 19:46:29,15.08841497,0.0001411,53.2172,135.8531,91.2272,268.8882,3.0481e-05,1.97e-06,0.0,0 STARLINK-4598,1 53630U 22104AU  24177.82395678  .00000197  00000-0  30481-4 0  9992,2 53630  53.2172 135.8531 0001411  91.2272 268.8882 15.08841497102186,6917.876,95.437,540.717,538.765,0.0
53630.0,STARLINK-4598,PAYLOAD,2024-06-26 03:43:25,15.08843038,0.0001392,53.2169,134.3671,92.0646,268.0506,3.8575e-05,3.26e-06,0.0,0 STARLINK-4598,1 53630U 22104AU  24178.15515504  .00000326  00000-0  38575-4 0  9997,2 53630  53.2169 134.3671 0001392  92.0646 268.0506 15.08843038102237,6917.871,95.437,540.699,538.773,0.0
53630.0,STARLINK-4598,PAYLOAD,2024-06-27 03:34:12,15.0883589,0.0001306,53.2166,129.9095,94.8106,265.3035,3.1543e-05,2.14e-06,0.0,0 STARLINK-4598,1 53630U 22104AU  24179.14876103  .00000214  00000-0  31543-4 0  9996,2 53630  53.2166 129.9095 0001306  94.8106 265.3035 15.08835890101525,6917.893,95.438,540.661,538.854,0.0
53630.0,STARLINK-4598,PAYLOAD,2024-06-28 12:57:17,15.08854504,0.0001284,53.2165,123.666,90.8726,269.2414,0.00016296,2.308e-05,0.0,0 STARLINK-4598,1 53630U 22104AU  24180.53978707  .00002308  00000-0  16296-3 0  9997,2 53630  53.2165 123.6660 0001284  90.8726 269.2414 15.08854504101732,6917.836,95.437,540.589,538.813,0.0
53630.0,STARLINK-4598,PAYLOAD,2024-06-29 04:51:10,15.08837326,0.0001315,53.217,120.6932,101.8789,258.2351,0.00010327,1.356e-05,0.0,0 STARLINK-4598,1 53630U 22104AU  24181.20220388  .00001356  00000-0  10327-3 0  9998,2 53630  53.2170 120.6932 0001315 101.8789 258.2351 15.08837326101836,6917.889,95.438,540.663,538.844,0.0
53630.0,STARLINK-4598,PAYLOAD,2024-06-29 12:48:05,15.08846958,0.0001099,53.216,119.2026,82.5111,277.6006,0.00016131,2.281e-05,0.0,0 STARLINK-4598,1 53630U 22104AU  24181.53339549  .00002281  00000-0  16131-3 0  9991,2 53630  53.2160 119.2026 0001099  82.5111 277.6006 15.08846958101884,6917.859,95.437,540.484,538.964,0.0
53630.0,STARLINK-4598,PAYLOAD,2024-06-30 04:41:58,15.08834789,0.0001153,53.217,116.2299,94.9183,265.194,-7.3187e-05,-1.452e-05,0.0,0 STARLINK-4598,1 53630U 22104AU  24182.19581508 -.00001452  00000-0 -73187-4 0  9994,2 53630  53.2170 116.2299 0001153  94.9183 265.1940 15.08834789101980,6917.896,95.438,540.559,538.964,0.0
53630.0,STARLINK-4598,PAYLOAD,2024-06-30 12:38:53,15.088449,0.000139,53.2184,114.7453,89.0337,271.0814,2.1319e-05,5.1e-07,0.0,0 STARLINK-4598,1 53630U 22104AU  24182.52700813  .00000051  00000-0  21319-4 0  9995,2 53630  53.2184 114.7453 0001390  89.0337 271.0814 15.08844900102892,6917.865,95.437,540.692,538.769,0.0
53630.0,STARLINK-4598,PAYLOAD,2024-06-30 19:00:26,15.0883105,0.0001236,53.215,113.558,99.3165,260.7966,0.00018834,2.71e-05,0.0,0 STARLINK-4598,1 53630U 22104AU  24182.79197445  .00002710  00000-0  18834-3 0  9996,2 53630  53.2150 113.5580 0001236  99.3165 260.7966 15.08831050102935,6917.908,95.438,540.628,538.918,0.0
